NORAD_CAT_ID,OBJECT_NAME,OBJECT_TYPE,EPOCH,MEAN_MOTION,ECCENTRICITY,INCLINATION,RA_OF_ASC_NODE,ARG_OF_PERICENTER,MEAN_ANOMALY,BSTAR,MEAN_MOTION_DOT,MEAN_MOTION_DDOT,TLE_LINE0,TLE_LINE1,TLE_LINE2,SEMIMAJOR_AXIS,PERIOD,APOGEE,PERIGEE,DECAYED
52844.0,STARLINK-4208,PAYLOAD,2022-12-14 22:33:23,15.08837926,0.0002783,53.2176,294.724,23.6188,336.4931,0.00011228,1.499e-05,0.0,0 STARLINK-4208,1 52844U 22062Q   22348.93985272  .00001499  00000-0  11228-3 0  9999,2 52844  53.2176 294.7240 0002783  23.6188 336.4931 15.08837926 28025,6917.887,95.438,541.677,537.826,0.0
52844.0,STARLINK-4208,PAYLOAD,2022-12-15 06:30:19,15.08827488,0.0002832,53.2162,293.2378,22.0414,338.07,0.00011273,1.506e-05,0.0,0 STARLINK-4208,1 52844U 22062Q   22349.27106187  .00001506  00000-0  11273-3 0  9996,2 52844  53.2162 293.2378 0002832  22.0414 338.0700 15.08827488 28075,6917.919,95.438,541.743,537.8240000000002,0.0
52844.0,STARLINK-4208,PAYLOAD,2022-12-15 20:48:47,15.08844178,0.0002881,53.2165,290.5616,23.2376,336.8746,9.0268e-05,1.149e-05,0.0,0 STARLINK-4208,1 52844U 22062Q   22349.86721200  .00001149  00000-0  90268-4 0  9995,2 52844  53.2165 290.5616 0002881  23.2376 336.8746 15.08844178 27673,6917.868,95.437,541.726,537.74,0.0
52844.0,STARLINK-4208,PAYLOAD,2022-12-15 23:59:33,15.08843467,0.0002888,53.2168,289.9669,23.6787,336.4337,8.1813e-05,1.014e-05,0.0,0 STARLINK-4208,1 52844U 22062Q   22349.99969254  .00001014  00000-0  81813-4 0  9999,2 52844  53.2168 289.9669 0002888  23.6787 336.4337 15.08843467 28182,6917.87,95.437,541.7330000000002,537.737,0.0
52844.0,STARLINK-4208,PAYLOAD,2022-12-16 12:42:38,15.08832003,0.0002798,53.2171,287.5881,25.4102,334.7028,0.00037504,5.684e-05,0.0,0 STARLINK-4208,1 52844U 22062Q   22350.52961299  .00005684  00000-0  37504-3 0  9995,2 52844  53.2171 287.5881 0002798  25.4102 334.7028 15.08832003 27773,6917.905,95.438,541.705,537.8340000000002,0.0
52844.0,STARLINK-4208,PAYLOAD,2022-12-16 20:39:34,15.08832773,0.0002662,53.2181,286.1040000000001,36.159,323.9582,8.2915e-05,1.031e-05,0.0,0 STARLINK-4208,1 52844U 22062Q   22350.86081990  .00001031  00000-0  82915-4 0  9992,2 52844  53.2181 286.1040 0002662  36.1590 323.9582 15.08832773 28316,6917.901999999999,95.438,541.609,537.9259999999998,0.0
52844.0,STARLINK-4208,PAYLOAD,2022-12-17 03:01:08,15.0882186,0.0002679,53.2166,284.9126,25.5617,334.5507,-1.5077e-05,-5.28e-06,0.0,0 STARLINK-4208,1 52844U 22062Q   22351.12579009 -.00000528  00000-0 -15077-4 0  9992,2 52844  53.2166 284.9126 0002679  25.5617 334.5507 15.08821860 28354,6917.936,95.439,541.654,537.948,0.0
52844.0,STARLINK-4208,PAYLOAD,2022-12-17 12:33:26,15.08833422,0.000278,53.2167,283.1279,22.8639,337.2476,1.1853e-05,-1e-06,0.0,0 STARLINK-4208,1 52844U 22062Q   22351.52322449 -.00000100  00000-0  11853-4 0  9993,2 52844  53.2167 283.1279 0002780  22.8639 337.2476 15.08833422 27926,6917.9,95.438,541.689,537.842,0.0
52844.0,STARLINK-4208,PAYLOAD,2022-12-18 12:24:13,15.08840762,0.0002986,53.2172,278.66700000000003,26.4654,333.6491,1.0484000000000003e-05,-1.22e-06,0.0,0 STARLINK-4208,1 52844U 22062Q   22352.51682480 -.00000122  00000-0  10484-4 0  9990,2 52844  53.2172 278.6670 0002986  26.4654 333.6491 15.08840762 28070,6917.878000000002,95.438,541.809,537.677,0.0
52844.0,STARLINK-4208,PAYLOAD,2022-12-19 04:18:05,15.08834781,0.0002869,53.2172,275.6926,23.738000000000003,336.3744,0.00021798,3.182e-05,0.0,0 STARLINK-4208,1 52844U 22062Q   22353.17922748  .00003182  00000-0  21798-3 0  9994,2 52844  53.2172 275.6926 0002869  23.7380 336.3744 15.08834781 28667,6917.896,95.438,541.746,537.7769999999998,0.0
52844.0,STARLINK-4208,PAYLOAD,2022-12-20 00:58:05,15.08853001,0.0002816,53.2158,271.8282,23.0359,337.0759,0.00036138,5.47e-05,0.0,0 STARLINK-4208,1 52844U 22062Q   22354.04033805  .00005470  00000-0  36138-3 0  9994,2 52844  53.2158 271.8282 0002816  23.0359 337.0759 15.08853001 28799,6917.840999999999,95.437,541.654,537.758,0.0
52844.0,STARLINK-4208,PAYLOAD,2022-12-20 12:05:46,15.08857281,0.0002862,53.2153,269.7462,24.2389,335.8737,0.0002678,3.978e-05,0.0,0 STARLINK-4208,1 52844U 22062Q   22354.50401311  .00003978  00000-0  26780-3 0  9999,2 52844  53.2153 269.7462 0002862  24.2389 335.8737 15.08857281 28377,6917.828,95.436,541.672,537.7130000000002,0.0
52844.0,STARLINK-4208,PAYLOAD,2022-12-21 03:59:38,15.08827996,0.0002931,53.2156,266.7727,25.6286,334.4851,-0.00032638,-5.478e-05,0.0,0 STARLINK-4208,1 52844U 22062Q   22355.16642174 -.00005478  00000-0 -32638-3 0  9994,2 52844  53.2156 266.7727 0002931  25.6286 334.4851 15.08827996 28966,6917.917,95.438,541.81,537.754,0.0
52844.0,STARLINK-4208,PAYLOAD,2022-12-21 11:56:34,15.08833406,0.0002858,53.2152,265.2858,25.7151,334.3982,-0.00016912,-2.979e-05,0.0,0 STARLINK-4208,1 52844U 22062Q   22355.49762138 -.00002979  00000-0 -16912-3 0  9993,2 52844  53.2152 265.2858 0002858  25.7151 334.3982 15.08833406 28520,6917.901,95.438,541.743,537.788,0.0
52844.0,STARLINK-4208,PAYLOAD,2022-12-22 05:25:49,15.08830939,0.0003022,53.2155,262.0147,25.2709,334.843,1.0818e-05,-1.17e-06,0.0,0 STARLINK-4208,1 52844U 22062Q   22356.22626992 -.00000117  00000-0  10818-4 0  9993,2 52844  53.2155 262.0147 0003022  25.2709 334.8430 15.08830939 29125,6917.908,95.438,541.864,537.682,0.0
52844.0,STARLINK-4208,PAYLOAD,2022-12-22 21:19:41,15.08832529,0.0002986,53.2155,259.0419,27.5051,332.6099,0.00027275,4.054e-05,0.0,0 STARLINK-4208,1 52844U 22062Q   22356.88867673  .00004054  00000-0  27275-3 0  9995,2 52844  53.2155 259.0419 0002986  27.5051 332.6099 15.08832529 28736,6917.903,95.438,541.8340000000002,537.703,0.0
52844.0,STARLINK-4208,PAYLOAD,2022-12-23 10:02:46,15.08842106,0.0003083,53.2153,256.6624,27.5364,332.5791,0.00045722,6.996e-05,0.0,0 STARLINK-4208,1 52844U 22062Q   22357.41859762  .00006996  00000-0  45722-3 0  9999,2 52844  53.2153 256.6624 0003083  27.5364 332.5791 15.08842106 29305,6917.874,95.437,541.872,537.606,0.0
52844.0,STARLINK-4208,PAYLOAD,2022-12-24 09:53:33,15.08851459,0.0003104,53.2146,252.2021,27.2921,332.8233,0.00030976,4.646e-05,0.0,0 STARLINK-4208,1 52844U 22062Q   22358.41219111  .00004646  00000-0  30976-3 0  9993,2 52844  53.2146 252.2021 0003104  27.2921 332.8233 15.08851459 28966,6917.845,95.437,541.8580000000002,537.563,0.0
52844.0,STARLINK-4208,PAYLOAD,2022-12-24 21:01:15,15.08848017,0.0003021,53.2144,250.1207,29.0647,331.0512,0.0001426,1.982e-05,0.0,0 STARLINK-4208,1 52844U 22062Q   22358.87586981  .00001982  00000-0  14260-3 0  9993,2 52844  53.2144 250.1207 0003021  29.0647 331.0512 15.08848017 29520,6917.856,95.437,541.811,537.631,0.0
52844.0,STARLINK-4208,PAYLOAD,2022-12-25 09:44:19,15.08848409,0.0003056,53.214,247.7419,29.307,330.8093,0.00010908,1.448e-05,0.0,0 STARLINK-4208,1 52844U 22062Q   22359.40578687  .00001448  00000-0  10908-3 0  9999,2 52844  53.2140 247.7419 0003056  29.3070 330.8093 15.08848409 29115,6917.855,95.437,541.8340000000002,537.606,0.0
52844.0,STARLINK-4208,PAYLOAD,2022-12-26 01:38:11,15.08832153,0.0003114,53.2141,244.7679,30.6404,329.4769,-0.0002387,-4.085e-05,0.0,0 STARLINK-4208,1 52844U 22062Q   22360.06819222 -.00004085  00000-0 -23870-3 0  9990,2 52844  53.2141 244.7679 0003114  30.6404 329.4769 15.08832153 29700,6917.904,95.438,541.924,537.615,0.0
52844.0,STARLINK-4208,PAYLOAD,2022-12-26 09:35:07,15.08832966,0.0003058,53.2143,243.2809,28.9605,331.1556,-6.2383e-05,-1.281e-05,0.0,0 STARLINK-4208,1 52844U 22062Q   22360.39939591 -.00001281  00000-0 -62383-4 0  9996,2 52844  53.2143 243.2809 0003058  28.9605 331.1556 15.08832966 29268,6917.901999999999,95.438,541.882,537.651,0.0
52844.0,STARLINK-4208,PAYLOAD,2022-12-26 22:18:12,15.08840927,0.0003076,53.214,240.9013,29.1512,330.9652,0.00010455,1.376e-05,0.0,0 STARLINK-4208,1 52844U 22062Q   22360.92931397  .00001376  00000-0  10455-3 0  9996,2 52844  53.2140 240.9013 0003076  29.1512 330.9652 15.08840927 29839,6917.878000000002,95.437,541.87,537.615,0.0
52844.0,STARLINK-4208,PAYLOAD,2022-12-26 23:53:35,15.08843032,0.0003109,53.2141,240.6042,29.8607,330.2562,0.00014423,2.008e-05,0.0,0 STARLINK-4208,1 52844U 22062Q   22360.99555332  .00002008  00000-0  14423-3 0  9996,2 52844  53.2141 240.6042 0003109  29.8607 330.2562 15.08843032 29358,6917.871,95.437,541.887,537.585,0.0
52844.0,STARLINK-4208,PAYLOAD,2022-12-28 01:19:45,15.0885559,0.0003116,53.2144,235.8446,30.1484,329.9687,0.00045079,6.897e-05,0.0,0 STARLINK-4208,1 52844U 22062Q   22362.05538754  .00006897  00000-0  45079-3 0  9995,2 52844  53.2144 235.8446 0003116  30.1484 329.9687 15.08855590 30000,6917.833000000001,95.437,541.8530000000002,537.5419999999998,0.0
52844.0,STARLINK-4208,PAYLOAD,2022-12-28 18:49:00,15.08840762,0.0002674,53.2146,232.5728,26.9484,333.1646,-5.390100000000001e-05,-1.146e-05,0.0,0 STARLINK-4208,1 52844U 22062Q   22362.78402810 -.00001146  00000-0 -53901-4 0  9996,2 52844  53.2146 232.5728 0002674  26.9484 333.1646 15.08840762 30119,6917.878000000002,95.438,541.5930000000002,537.893,0.0
52844.0,STARLINK-4208,PAYLOAD,2022-12-29 01:10:32,15.08833028,0.0002378,53.2157,231.3843,18.6275,341.4804,-0.00015851,-2.81e-05,0.0,0 STARLINK-4208,1 52844U 22062Q   22363.04898914 -.00002810  00000-0 -15851-3 0  9990,2 52844  53.2157 231.3843 0002378  18.6275 341.4804 15.08833028 29666,6917.901999999999,95.438,541.4119999999998,538.122,0.0
52844.0,STARLINK-4208,PAYLOAD,2022-12-29 21:50:34,15.08823163,0.0003142,53.2138,227.5192,30.1384,329.9788,-2.1072e-05,-6.24e-06,0.0,0 STARLINK-4208,1 52844U 22062Q   22363.91012588 -.00000624  00000-0 -21072-4 0  9995,2 52844  53.2138 227.5192 0003142  30.1384 329.9788 15.08823163 30280,6917.932,95.439,541.97,537.623,0.0
52844.0,STARLINK-4208,PAYLOAD,2022-12-30 01:01:21,15.08824543,0.000305,53.2142,226.9244,30.7587,329.3583,-8.9677e-05,-1.715e-05,0.0,0 STARLINK-4208,1 52844U 22062Q   22364.04260794 -.00001715  00000-0 -89677-4 0  9991,2 52844  53.2142 226.9244 0003050  30.7587 329.3583 15.08824543 29812,6917.928000000001,95.439,541.903,537.683,0.0
